{
  "type": "FeatureCollection",
  "features": [
    {
      "type": "Feature",
      "properties": {
        "norad_id": 43783,
        "name": "KAZSTSAT",
        "group": "resource",
        "lat": 4.139403933556132,
        "lon": 32.61717215665933,
        "alt_km": 571.0562929455573,
        "timestamp": "2025-12-24T11:32:59.661611+00:00",
        "meta_object_name": "KAZSTSAT",
        "meta_object_id": "2018-099AB",
        "meta_epoch": "2025-12-24T01:55:16.633632",
        "meta_mean_motion": 14.99370075,
        "meta_eccentricity": 0.0006223,
        "meta_inclination": 97.4517,
        "meta_ra_of_asc_node": 32.7761,
        "meta_arg_of_pericenter": 279.4355,
        "meta_mean_anomaly": 80.6165,
        "meta_ephemeris_type": 0,
        "meta_classification_type": "U",
        "meta_norad_cat_id": 43783,
        "meta_element_set_no": 999,
        "meta_rev_at_epoch": 38506,
        "meta_bstar": 5.105e-05,
        "meta_mean_motion_dot": 5.69e-06,
        "meta_mean_motion_ddot": 0,
        "tle_line1": "1 43783U 18099AB  25358.08005363  .00000569  00000+0  51050-4 0  9994",
        "tle_line2": "2 43783  97.4517  32.7761 0006223 279.4355  80.6165 14.99370075385067"
      },
      "geometry": {
        "type": "Point",
        "coordinates": [
          32.61717215665933,
          4.139403933556132
        ]
      }
    },
    {
      "type": "Feature",
      "properties": {
        "norad_id": 43831,
        "name": "SAUDISAT 5A",
        "group": "resource",
        "lat": 82.65389344971861,
        "lon": -28.87905962440998,
        "alt_km": 476.0034299007684,
        "timestamp": "2025-12-24T11:32:59.661622+00:00",
        "meta_object_name": "SAUDISAT 5A",
        "meta_object_id": "2018-102A",
        "meta_epoch": "2025-12-24T04:51:48.191904",
        "meta_mean_motion": 15.25793083,
        "meta_eccentricity": 0.0011135,
        "meta_inclination": 97.3331,
        "meta_ra_of_asc_node": 58.1722,
        "meta_arg_of_pericenter": 40.6388,
        "meta_mean_anomaly": 319.5679,
        "meta_ephemeris_type": 0,
        "meta_classification_type": "U",
        "meta_norad_cat_id": 43831,
        "meta_element_set_no": 999,
        "meta_rev_at_epoch": 38897,
        "meta_bstar": 0.00027823,
        "meta_mean_motion_dot": 7.051e-05,
        "meta_mean_motion_ddot": 0,
        "tle_line1": "1 43831U 18102A   25358.20264111  .00007051  00000+0  27823-3 0  9998",
        "tle_line2": "2 43831  97.3331  58.1722 0011135  40.6388 319.5679 15.25793083388970"
      },
      "geometry": {
        "type": "Point",
        "coordinates": [
          -28.87905962440998,
          82.65389344971861
        ]
      }
    },
    {
      "type": "Feature",
      "properties": {
        "norad_id": 43833,
        "name": "SAUDISAT 5B",
        "group": "resource",
        "lat": 23.002502279406137,
        "lon": -115.65664270591557,
        "alt_km": 490.4833079720938,
        "timestamp": "2025-12-24T11:32:59.661633+00:00",
        "meta_object_name": "SAUDISAT 5B",
        "meta_object_id": "2018-102C",
        "meta_epoch": "2025-12-24T04:34:19.447104",
        "meta_mean_motion": 15.26139616,
        "meta_eccentricity": 0.0011884,
        "meta_inclination": 97.3427,
        "meta_ra_of_asc_node": 60.9196,
        "meta_arg_of_pericenter": 42.714,
        "meta_mean_anomaly": 317.502,
        "meta_ephemeris_type": 0,
        "meta_classification_type": "U",
        "meta_norad_cat_id": 43833,
        "meta_element_set_no": 999,
        "meta_rev_at_epoch": 38908,
        "meta_bstar": 0.00025865,
        "meta_mean_motion_dot": 6.619e-05,
        "meta_mean_motion_ddot": 0,
        "tle_line1": "1 43833U 18102C   25358.19050286  .00006619  00000+0  25865-3 0  9997",
        "tle_line2": "2 43833  97.3427  60.9196 0011884  42.7140 317.5020 15.26139616389082"
      },
      "geometry": {
        "type": "Point",
        "coordinates": [
          -115.65664270591557,
          23.002502279406137
        ]
      }
    },
    {
      "type": "Feature",
      "properties": {
        "norad_id": 44622,
        "name": "GAOFEN-10R",
        "group": "resource",
        "lat": 72.51896188035636,
        "lon": -80.59482070736362,
        "alt_km": 611.5035204018204,
        "timestamp": "2025-12-24T11:32:59.661644+00:00",
        "meta_object_name": "GAOFEN-10R",
        "meta_object_id": "2019-066A",
        "meta_epoch": "2025-12-24T04:44:16.273248",
        "meta_mean_motion": 14.82829218,
        "meta_eccentricity": 0.0007072,
        "meta_inclination": 98.0293,
        "meta_ra_of_asc_node": 305.7492,
        "meta_arg_of_pericenter": 8.2683,
        "meta_mean_anomaly": 351.8646,
        "meta_ephemeris_type": 0,
        "meta_classification_type": "U",
        "meta_norad_cat_id": 44622,
        "meta_element_set_no": 999,
        "meta_rev_at_epoch": 33644,
        "meta_bstar": 0.00020145,
        "meta_mean_motion_dot": 1.576e-05,
        "meta_mean_motion_ddot": 0,
        "tle_line1": "1 44622U 19066A   25358.19741057  .00001576  00000+0  20145-3 0  9990",
        "tle_line2": "2 44622  98.0293 305.7492 0007072   8.2683 351.8646 14.82829218336442"
      },
      "geometry": {
        "type": "Point",
        "coordinates": [
          -80.59482070736362,
          72.51896188035636
        ]
      }
    },
    {
      "type": "Feature",
      "properties": {
        "norad_id": 44804,
        "name": "CARTOSAT-3",
        "group": "resource",
        "lat": -26.9610041060127,
        "lon": 61.73404455044777,
        "alt_km": 511.2832103991095,
        "timestamp": "2025-12-24T11:32:59.661655+00:00",
        "meta_object_name": "CARTOSAT-3",
        "meta_object_id": "2019-081A",
        "meta_epoch": "2025-12-24T05:20:46.743936",
        "meta_mean_motion": 15.19246521,
        "meta_eccentricity": 0.0013669,
        "meta_inclination": 97.4566,
        "meta_ra_of_asc_node": 57.6589,
        "meta_arg_of_pericenter": 47.5289,
        "meta_mean_anomaly": 312.7099,
        "meta_ephemeris_type": 0,
        "meta_classification_type": "U",
        "meta_norad_cat_id": 44804,
        "meta_element_set_no": 999,
        "meta_rev_at_epoch": 33690,
        "meta_bstar": 0.00020811,
        "meta_mean_motion_dot": 4.327e-05,
        "meta_mean_motion_ddot": 0,
        "tle_line1": "1 44804U 19081A   25358.22276324  .00004327  00000+0  20811-3 0  9990",
        "tle_line2": "2 44804  97.4566  57.6589 0013669  47.5289 312.7099 15.19246521336907"
      },
      "geometry": {
        "type": "Point",
        "coordinates": [
          61.73404455044777,
          -26.9610041060127
        ]
      }
    },
    {
      "type": "Feature",
      "properties": {
        "norad_id": 44819,
        "name": "GAOFEN-12 01",
        "group": "resource",
        "lat": -69.13441857232286,
        "lon": 163.34176603482993,
        "alt_km": 633.9700265403462,
        "timestamp": "2025-12-24T11:32:59.661665+00:00",
        "meta_object_name": "GAOFEN-12 01",
        "meta_object_id": "2019-082A",
        "meta_epoch": "2025-12-24T03:56:03.341184",
        "meta_mean_motion": 14.80670049,
        "meta_eccentricity": 0.0002134,
        "meta_inclination": 97.8125,
        "meta_ra_of_asc_node": 4.145,
        "meta_arg_of_pericenter": 181.8183,
        "meta_mean_anomaly": 178.3022,
        "meta_ephemeris_type": 0,
        "meta_classification_type": "U",
        "meta_norad_cat_id": 44819,
        "meta_element_set_no": 999,
        "meta_rev_at_epoch": 32819,
        "meta_bstar": 6.8998e-05,
        "meta_mean_motion_dot": 4.79e-06,
        "meta_mean_motion_ddot": 0,
        "tle_line1": "1 44819U 19082A   25358.16392756  .00000479  00000+0  68998-4 0  9991",
        "tle_line2": "2 44819  97.8125   4.1450 0002134 181.8183 178.3022 14.80670049328199"
      },
      "geometry": {
        "type": "Point",
        "coordinates": [
          163.34176603482993,
          -69.13441857232286
        ]
      }
    },
    {
      "type": "Feature",
      "properties": {
        "norad_id": 44873,
        "name": "CSG-1",
        "group": "resource",
        "lat": 63.26125445088367,
        "lon": 163.67064540492697,
        "alt_km": 615.3835770965397,
        "timestamp": "2025-12-24T11:32:59.661677+00:00",
        "meta_object_name": "CSG-1",
        "meta_object_id": "2019-092A",
        "meta_epoch": "2025-12-24T04:46:46.535808",
        "meta_mean_motion": 14.8215913,
        "meta_eccentricity": 0.0001477,
        "meta_inclination": 97.8805,
        "meta_ra_of_asc_node": 179.3507,
        "meta_arg_of_pericenter": 85.4204,
        "meta_mean_anomaly": 274.7178,
        "meta_ephemeris_type": 0,
        "meta_classification_type": "U",
        "meta_norad_cat_id": 44873,
        "meta_element_set_no": 999,
        "meta_rev_at_epoch": 32555,
        "meta_bstar": 6.611e-05,
        "meta_mean_motion_dot": 4.74e-06,
        "meta_mean_motion_ddot": 0,
        "tle_line1": "1 44873U 19092A   25358.19914972  .00000474  00000+0  66110-4 0  9994",
        "tle_line2": "2 44873  97.8805 179.3507 0001477  85.4204 274.7178 14.82159130325559"
      },
      "geometry": {
        "type": "Point",
        "coordinates": [
          163.67064540492697,
          63.26125445088367
        ]
      }
    }
  ]
}